[{"OBJECT_NAME":"STARLINK-33996","OBJECT_ID":"2025-098U","EPOCH":"2026-03-09T23:26:32.793216","MEAN_MOTION":14.98330939,"ECCENTRICITY":0.00029859,"INCLINATION":69.9998,"RA_OF_ASC_NODE":273.8033,"ARG_OF_PERICENTER":267.8144,"MEAN_ANOMALY":92.2673,"EPHEMERIS_TYPE":0,"CLASSIFICATION_TYPE":"U","NORAD_CAT_ID":63944,"ELEMENT_SET_NO":999,"REV_AT_EPOCH":4659,"BSTAR":0.00037867253,"MEAN_MOTION_DOT":4.428e-5,"MEAN_MOTION_DDOT":0},{"OBJECT_NAME":"IKONOS 2","OBJECT_ID":"1999-051A","EPOCH":"2026-03-09T15:19:40.153152","MEAN_MOTION":14.96976552,"ECCENTRICITY":0.0006412,"INCLINATION":98.1486,"RA_OF_ASC_NODE":313.4587,"ARG_OF_PERICENTER":157.8343,"MEAN_ANOMALY":202.3156,"EPHEMERIS_TYPE":0,"CLASSIFICATION_TYPE":"U","NORAD_CAT_ID":25919,"ELEMENT_SET_NO":999,"REV_AT_EPOCH":42402,"BSTAR":0.00024901,"MEAN_MOTION_DOT":2.801e-5,"MEAN_MOTION_DDOT":0}]
